{
  "norad_id": 63327,
  "name": "STARLINK-33625",
  "history": [
    {
      "epoch": "2026-03-28T20:04:47.110368Z",
      "apogee_km": 484.0399470447801,
      "perigee_km": 481.93275884062405,
      "latitude_deg": 1.7369185196773924e-05,
      "longitude_deg": 147.66534327117537,
      "height_km": 482.7359885013872,
      "semi_major_axis_km": 6861.123352942702,
      "eccentricity": 0.00015356,
      "inclination_deg": 43.0035,
      "raan_deg": 275.113,
      "arg_perigee_deg": 271.4993,
      "mean_anomaly_deg": 88.5683,
      "mean_motion_rev_day": 15.27600954
    }
  ]
}